[{"OBJECT_NAME":"STARLINK-35335","OBJECT_ID":"2025-243D","EPOCH":"2025-12-20T00:30:10.907712","MEAN_MOTION":15.30192222,"ECCENTRICITY":0.00012038,"INCLINATION":53.1592,"RA_OF_ASC_NODE":255.4868,"ARG_OF_PERICENTER":102.5833,"MEAN_ANOMALY":257.5302,"EPHEMERIS_TYPE":0,"CLASSIFICATION_TYPE":"U","NORAD_CAT_ID":66180,"ELEMENT_SET_NO":999,"REV_AT_EPOCH":845,"BSTAR":0.0002191431,"MEAN_MOTION_DOT":6.135e-5,"MEAN_MOTION_DDOT":0},{"OBJECT_NAME":"STARLINK-35342","OBJECT_ID":"2025-243E","EPOCH":"2025-12-21T17:18:36.279072","MEAN_MOTION":15.3022342,"ECCENTRICITY":0.0002858,"INCLINATION":53.1579,"RA_OF_ASC_NODE":247.6073,"ARG_OF_PERICENTER":104.0582,"MEAN_ANOMALY":256.0736,"EPHEMERIS_TYPE":0,"CLASSIFICATION_TYPE":"U","NORAD_CAT_ID":66181,"ELEMENT_SET_NO":999,"REV_AT_EPOCH":871,"BSTAR":0.00067367,"MEAN_MOTION_DOT":0.00019661,"MEAN_MOTION_DDOT":0},{"OBJECT_NAME":"STARLINK-35333","OBJECT_ID":"2025-243F","EPOCH":"2025-12-21T17:21:38.582208","MEAN_MOTION":15.30217042,"ECCENTRICITY":0.0001207,"INCLINATION":53.1587,"RA_OF_ASC_NODE":247.6238,"ARG_OF_PERICENTER":72.1777,"MEAN_ANOMALY":287.9356,"EPHEMERIS_TYPE":0,"CLASSIFICATION_TYPE":"U","NORAD_CAT_ID":66182,"ELEMENT_SET_NO":999,"REV_AT_EPOCH":871,"BSTAR":0.00080225,"MEAN_MOTION_DOT":0.00023489,"MEAN_MOTION_DDOT":0},{"OBJECT_NAME":"STARLINK-35310","OBJECT_ID":"2025-243G","EPOCH":"2025-12-21T17:26:12.659424","MEAN_MOTION":15.30249642,"ECCENTRICITY":0.0001701,"INCLINATION":53.159,"RA_OF_ASC_NODE":247.6444,"ARG_OF_PERICENTER":42.6357,"MEAN_ANOMALY":317.4775,"EPHEMERIS_TYPE":0,"CLASSIFICATION_TYPE":"U","NORAD_CAT_ID":66183,"ELEMENT_SET_NO":999,"REV_AT_EPOCH":871,"BSTAR":0.0011596,"MEAN_MOTION_DOT":0.00034195,"MEAN_MOTION_DDOT":0},{"OBJECT_NAME":"STARLINK-35317","OBJECT_ID":"2025-243H","EPOCH":"2025-12-21T20:16:04.336032","MEAN_MOTION":15.3022119,"ECCENTRICITY":0.0001082,"INCLINATION":53.1597,"RA_OF_ASC_NODE":246.9595,"ARG_OF_PERICENTER":92.5567,"MEAN_ANOMALY":267.5557,"EPHEMERIS_TYPE":0,"CLASSIFICATION_TYPE":"U","NORAD_CAT_ID":66184,"ELEMENT_SET_NO":999,"REV_AT_EPOCH":873,"BSTAR":0.00069014,"MEAN_MOTION_DOT":0.00020149,"MEAN_MOTION_DDOT":0},{"OBJECT_NAME":"STARLINK-35377","OBJECT_ID":"2025-243J","EPOCH":"2025-12-21T00:08:34.666656","MEAN_MOTION":15.30205662,"ECCENTRICITY":0.00013652,"INCLINATION":53.159,"RA_OF_ASC_NODE":250.9701,"ARG_OF_PERICENTER":79.5649,"MEAN_ANOMALY":280.5505,"EPHEMERIS_TYPE":0,"CLASSIFICATION_TYPE":"U","NORAD_CAT_ID":66185,"ELEMENT_SET_NO":999,"REV_AT_EPOCH":860,"BSTAR":0.00027060876,"MEAN_MOTION_DOT":7.665e-5,"MEAN_MOTION_DDOT":0},{"OBJECT_NAME":"STARLINK-35365","OBJECT_ID":"2025-243K","EPOCH":"2025-12-21T17:17:05.107200","MEAN_MOTION":15.30223022,"ECCENTRICITY":0.0002519,"INCLINATION":53.1581,"RA_OF_ASC_NODE":247.6053,"ARG_OF_PERICENTER":97.5969,"MEAN_ANOMALY":262.5318,"EPHEMERIS_TYPE":0,"CLASSIFICATION_TYPE":"U","NORAD_CAT_ID":66186,"ELEMENT_SET_NO":999,"REV_AT_EPOCH":871,"BSTAR":0.00064777,"MEAN_MOTION_DOT":0.00018889,"MEAN_MOTION_DDOT":0},{"OBJECT_NAME":"STARLINK-35350","OBJECT_ID":"2025-243L","EPOCH":"2025-12-21T17:27:43.419168","MEAN_MOTION":15.30227809,"ECCENTRICITY":0.0001019,"INCLINATION":53.1588,"RA_OF_ASC_NODE":247.6535,"ARG_OF_PERICENTER":77.67,"MEAN_ANOMALY":282.4415,"EPHEMERIS_TYPE":0,"CLASSIFICATION_TYPE":"U","NORAD_CAT_ID":66187,"ELEMENT_SET_NO":999,"REV_AT_EPOCH":871,"BSTAR":0.0011788,"MEAN_MOTION_DOT":0.00034748,"MEAN_MOTION_DDOT":0},{"OBJECT_NAME":"STARLINK-35041","OBJECT_ID":"2025-243M","EPOCH":"2025-12-21T17:03:24.403104","MEAN_MOTION":15.30230496,"ECCENTRICITY":0.0001381,"INCLINATION":53.1598,"RA_OF_ASC_NODE":247.5456,"ARG_OF_PERICENTER":90.5707,"MEAN_ANOMALY":269.5452,"EPHEMERIS_TYPE":0,"CLASSIFICATION_TYPE":"U","NORAD_CAT_ID":66188,"ELEMENT_SET_NO":999,"REV_AT_EPOCH":871,"BSTAR":0.00075315,"MEAN_MOTION_DOT":0.00022034,"MEAN_MOTION_DDOT":0},{"OBJECT_NAME":"STARLINK-34694","OBJECT_ID":"2025-243N","EPOCH":"2025-12-21T16:54:17.592192","MEAN_MOTION":15.30212066,"ECCENTRICITY":0.0002188,"INCLINATION":53.1601,"RA_OF_ASC_NODE":247.5047,"ARG_OF_PERICENTER":79.1491,"MEAN_ANOMALY":280.9756,"EPHEMERIS_TYPE":0,"CLASSIFICATION_TYPE":"U","NORAD_CAT_ID":66189,"ELEMENT_SET_NO":999,"REV_AT_EPOCH":871,"BSTAR":0.00082236,"MEAN_MOTION_DOT":0.00024085,"MEAN_MOTION_DDOT":0},{"OBJECT_NAME":"STARLINK-34863","OBJECT_ID":"2025-243P","EPOCH":"2025-12-21T20:20:37.944096","MEAN_MOTION":15.302408,"ECCENTRICITY":0.0001366,"INCLINATION":53.1596,"RA_OF_ASC_NODE":246.9762,"ARG_OF_PERICENTER":87.4009,"MEAN_ANOMALY":272.7148,"EPHEMERIS_TYPE":0,"CLASSIFICATION_TYPE":"U","NORAD_CAT_ID":66190,"ELEMENT_SET_NO":999,"REV_AT_EPOCH":873,"BSTAR":0.00096172,"MEAN_MOTION_DOT":0.00028269,"MEAN_MOTION_DDOT":0},{"OBJECT_NAME":"STARLINK-35061","OBJECT_ID":"2025-243Q","EPOCH":"2025-12-21T17:30:45.643680","MEAN_MOTION":15.30214319,"ECCENTRICITY":0.0001396,"INCLINATION":53.1587,"RA_OF_ASC_NODE":247.6639,"ARG_OF_PERICENTER":56.943,"MEAN_ANOMALY":303.1705,"EPHEMERIS_TYPE":0,"CLASSIFICATION_TYPE":"U","NORAD_CAT_ID":66191,"ELEMENT_SET_NO":999,"REV_AT_EPOCH":871,"BSTAR":0.00066474,"MEAN_MOTION_DOT":0.00019389,"MEAN_MOTION_DDOT":0},{"OBJECT_NAME":"STARLINK-34937","OBJECT_ID":"2025-243R","EPOCH":"2025-12-21T09:45:03.476736","MEAN_MOTION":15.30229046,"ECCENTRICITY":0.00012449,"INCLINATION":53.1572,"RA_OF_ASC_NODE":249.1987,"ARG_OF_PERICENTER":74.7929,"MEAN_ANOMALY":285.321,"EPHEMERIS_TYPE":0,"CLASSIFICATION_TYPE":"U","NORAD_CAT_ID":66192,"ELEMENT_SET_NO":999,"REV_AT_EPOCH":866,"BSTAR":0.00051154205,"MEAN_MOTION_DOT":0.00014835,"MEAN_MOTION_DDOT":0},{"OBJECT_NAME":"STARLINK-35197","OBJECT_ID":"2025-243S","EPOCH":"2025-12-21T16:36:03.348288","MEAN_MOTION":15.3021238,"ECCENTRICITY":0.0001565,"INCLINATION":53.1594,"RA_OF_ASC_NODE":247.4257,"ARG_OF_PERICENTER":90.8749,"MEAN_ANOMALY":269.2431,"EPHEMERIS_TYPE":0,"CLASSIFICATION_TYPE":"U","NORAD_CAT_ID":66193,"ELEMENT_SET_NO":999,"REV_AT_EPOCH":871,"BSTAR":0.00058252,"MEAN_MOTION_DOT":0.00016939,"MEAN_MOTION_DDOT":0},{"OBJECT_NAME":"STARLINK-35374","OBJECT_ID":"2025-243T","EPOCH":"2025-12-21T10:24:24.434496","MEAN_MOTION":15.30201296,"ECCENTRICITY":0.00012764,"INCLINATION":53.1601,"RA_OF_ASC_NODE":248.658,"ARG_OF_PERICENTER":83.4185,"MEAN_ANOMALY":276.6961,"EPHEMERIS_TYPE":0,"CLASSIFICATION_TYPE":"U","NORAD_CAT_ID":66194,"ELEMENT_SET_NO":999,"REV_AT_EPOCH":867,"BSTAR":0.00078284502,"MEAN_MOTION_DOT":0.00022899,"MEAN_MOTION_DDOT":0},{"OBJECT_NAME":"STARLINK-34813","OBJECT_ID":"2025-243U","EPOCH":"2025-12-21T16:45:09.762624","MEAN_MOTION":15.30211762,"ECCENTRICITY":0.0001845,"INCLINATION":53.1589,"RA_OF_ASC_NODE":247.4648,"ARG_OF_PERICENTER":80.5693,"MEAN_ANOMALY":279.5516,"EPHEMERIS_TYPE":0,"CLASSIFICATION_TYPE":"U","NORAD_CAT_ID":66195,"ELEMENT_SET_NO":999,"REV_AT_EPOCH":871,"BSTAR":0.00041381,"MEAN_MOTION_DOT":0.00011921,"MEAN_MOTION_DDOT":0}]
