STARLINK-35335          
1 66180U 25243D   25354.02095958  .00006135  00000+0  21914-3 0  9998
2 66180  53.1592 255.4868 0001203 102.5833 257.5302 15.30192222  8452
STARLINK-35342          
1 66181U 25243E   25355.72125323  .00019661  00000+0  67367-3 0  9997
2 66181  53.1579 247.6073 0002858 104.0582 256.0736 15.30223420  8713
STARLINK-35333          
1 66182U 25243F   25355.72336322  .00023489  00000+0  80225-3 0  9992
2 66182  53.1587 247.6238 0001207  72.1777 287.9356 15.30217042  8718
STARLINK-35310          
1 66183U 25243G   25355.72653541  .00034195  00000+0  11596-2 0  9998
2 66183  53.1590 247.6444 0001701  42.6357 317.4775 15.30249642  8712
STARLINK-35317          
1 66184U 25243H   25355.84449463  .00020149  00000+0  69014-3 0  9991
2 66184  53.1597 246.9595 0001082  92.5567 267.5557 15.30221190  8731
STARLINK-35377          
1 66185U 25243J   25355.00595679  .00007665  00000+0  27061-3 0  9995
2 66185  53.1590 250.9701 0001365  79.5649 280.5505 15.30205662  8609
STARLINK-35365          
1 66186U 25243K   25355.72019800  .00018889  00000+0  64777-3 0  9997
2 66186  53.1581 247.6053 0002519  97.5969 262.5318 15.30223022  8714
STARLINK-35350          
1 66187U 25243L   25355.72758587  .00034748  00000+0  11788-2 0  9995
2 66187  53.1588 247.6535 0001019  77.6700 282.4415 15.30227809  8719
STARLINK-35041          
1 66188U 25243M   25355.71069911  .00022034  00000+0  75315-3 0  9993
2 66188  53.1598 247.5456 0001381  90.5707 269.5452 15.30230496  8718
STARLINK-34694          
1 66189U 25243N   25355.70437028  .00024085  00000+0  82236-3 0  9999
2 66189  53.1601 247.5047 0002188  79.1491 280.9756 15.30212066  8716
STARLINK-34863          
1 66190U 25243P   25355.84766139  .00028269  00000+0  96172-3 0  9996
2 66190  53.1596 246.9762 0001366  87.4009 272.7148 15.30240800  8735
STARLINK-35061          
1 66191U 25243Q   25355.72969495  .00019389  00000+0  66474-3 0  9999
2 66191  53.1587 247.6639 0001396  56.9430 303.1705 15.30214319  8711
STARLINK-34937          
1 66192U 25243R   25355.40629024  .00014835  00000+0  51154-3 0  9996
2 66192  53.1572 249.1987 0001244  74.7929 285.3210 15.30229046  8661
STARLINK-35197          
1 66193U 25243S   25355.69170542  .00016939  00000+0  58252-3 0  9997
2 66193  53.1594 247.4257 0001565  90.8749 269.2431 15.30212380  8717
STARLINK-35374          
1 66194U 25243T   25355.43361614  .00022899  00000+0  78285-3 0  9992
2 66194  53.1601 248.6580 0001276  83.4185 276.6961 15.30201296  8679
STARLINK-34813          
1 66195U 25243U   25355.69802966  .00011921  00000+0  41381-3 0  9992
2 66195  53.1589 247.4648 0001845  80.5693 279.5516 15.30211762  8713
